IRIDIUM 105             
1 41921U 17003E   26068.81234395  .00000237  00000+0  77196-4 0  9990
2 41921  86.3921  98.4421 0002251  92.6468 267.4986 14.34401202480893
IRIDIUM 154             
1 43574U 18061F   26068.81146489  .00000053  00000+0  11682-4 0  9991
2 43574  86.3916  98.3738 0002252  97.8524 262.2928 14.34219109399165
